OBJECT_NAME,OBJECT_ID,EPOCH,MEAN_MOTION,ECCENTRICITY,INCLINATION,RA_OF_ASC_NODE,ARG_OF_PERICENTER,MEAN_ANOMALY,EPHEMERIS_TYPE,CLASSIFICATION_TYPE,NORAD_CAT_ID,ELEMENT_SET_NO,REV_AT_EPOCH,BSTAR,MEAN_MOTION_DOT,MEAN_MOTION_DDOT
STARLINK-33973,2025-095E,2025-10-30T16:59:57.240096,15.27619620,.00026904,42.9988,189.8648,285.4436,74.6118,0,U,63894,999,2791,.17609013E-2,.48575E-3,0
STARLINK-34119,2025-095F,2025-10-30T16:37:57.487008,15.27616709,.00021544,43.0014,190.6212,286.9499,73.1117,0,U,63895,999,2790,.16794301E-2,.46296E-3,0
STARLINK-34143,2025-095G,2025-10-30T17:35:07.217952,15.27585388,.00038879,42.9995,190.0513,288.1709,71.8719,0,U,63896,999,2791,.14092589E-2,.38734E-3,0
STARLINK-33957,2025-095H,2025-10-30T18:17:40.037280,15.27614540,.00025374,43.0005,190.2803,287.0378,73.0196,0,U,63897,999,2790,.17266504E-2,.47611E-3,0
STARLINK-34120,2025-095J,2025-10-30T18:28:33.512448,15.27611372,.00026419,42.9972,189.4633,293.9354,66.1220,0,U,63898,999,2792,.13593927E-2,.37373E-3,0
STARLINK-34134,2025-095K,2025-10-31T00:13:55.819776,15.27612994,.00015901,43.0008,188.6999,279.2778,80.7894,0,U,63899,999,2795,.15787407E-2,.43482E-3,0
STARLINK-34118,2025-095L,2025-10-31T00:23:10.802400,15.27605863,.00017575,43.0023,188.7466,254.5532,105.5126,0,U,63900,999,2795,.12765541E-2,.35061E-3,0
STARLINK-34125,2025-095M,2025-10-30T17:46:12.430560,15.27588005,.00041298,43.0058,190.1147,288.8325,71.2079,0,U,63901,999,2790,.13459399E-2,.36976E-3,0
STARLINK-33955,2025-095N,2025-10-30T17:03:39.150720,15.27602492,.00032575,43.0095,189.8896,275.4740,84.5740,0,U,63902,999,2790,.15202935E-2,.41843E-3,0
STARLINK-34097,2025-095P,2025-10-31T08:00:03.000384,15.27563491,.00019765,43.0014,186.6269,265.1524,176.1122,0,U,63903,999,588,-.12270817E-3,-.3636E-4,0
STARLINK-34092,2025-095Q,2025-10-30T18:13:59.368224,15.27628452,.00019191,43.0036,190.2616,266.5211,93.5421,0,U,63904,999,2790,.1640248E-2,.45219E-3,0
STARLINK-34114,2025-095R,2025-10-30T16:50:54.998880,15.27609422,.00021434,43.0003,190.6854,288.4683,71.5936,0,U,63905,999,2789,.16976451E-2,.46794E-3,0
STARLINK-33770,2025-095S,2025-10-30T17:16:36.222816,15.27608210,.00027609,43.0000,189.9527,292.2469,67.8090,0,U,63906,999,2790,.17450872E-2,.48117E-3,0
STARLINK-34106,2025-095T,2025-10-30T17:11:03.308928,15.27607419,.00024634,42.9993,189.9215,289.4487,70.6099,0,U,63907,999,2790,.172531E-2,.47563E-3,0
STARLINK-34083,2025-095U,2025-10-30T18:19:31.145952,15.27610685,.00025217,43.0002,190.2859,285.4817,74.5756,0,U,63908,999,2790,.16484796E-2,.45425E-3,0
STARLINK-34066,2025-095V,2025-10-31T00:15:46.799712,15.27614508,.00016458,43.0019,188.7067,276.6367,83.4298,0,U,63909,999,2794,.1718251E-2,.47375E-3,0
STARLINK-34071,2025-095W,2025-10-31T00:25:02.047584,15.27606938,.00020501,43.0022,188.7544,268.2668,91.7948,0,U,63910,999,2794,.16388143E-2,.45149E-3,0
STARLINK-34038,2025-095X,2025-10-31T00:04:40.819008,15.27612862,.00016429,43.0019,188.6446,264.7593,95.3071,0,U,63911,999,2794,.18357524E-2,.50653E-3,0
STARLINK-34031,2025-095Y,2025-10-31T00:10:13.867680,15.27609917,.00017444,43.0018,188.6756,266.4653,93.5999,0,U,63912,999,2794,.16216757E-2,.44675E-3,0
STARLINK-34070,2025-095Z,2025-10-30T17:42:30.635712,15.27614992,.00023838,43.0017,190.0939,294.3755,65.6848,0,U,63913,999,2790,.14083446E-2,.38739E-3,0
STARLINK-34068,2025-095AA,2025-10-30T17:27:42.215616,15.27611892,.00020897,42.9996,190.0110,279.0045,81.0570,0,U,63914,999,2790,.1681482E-2,.46346E-3,0
STARLINK-34076,2025-095AB,2025-10-30T17:36:57.364992,15.27602395,.00014831,43.0021,190.0578,277.7149,82.3534,0,U,63915,999,2790,.10697481E-2,.29312E-3,0
STARLINK-33910,2025-095AC,2025-10-30T17:05:30.096960,15.27597270,.00018619,42.9978,189.8889,283.2115,76.8529,0,U,63916,999,2790,.11621019E-2,.31872E-3,0
STARLINK-34075,2025-095AD,2025-10-30T17:22:09.273216,15.27603833,.00023289,42.9996,189.9814,291.5029,68.5574,0,U,63917,999,2790,.15712498E-2,.43262E-3,0
STARLINK-34012,2025-098A,2025-10-31T03:17:00.085920,14.98336837,.00026088,70.0015,241.2255,269.3495,90.7365,0,U,63926,999,2718,.66094027E-3,.7803E-4,0
STARLINK-33956,2025-098B,2025-10-31T05:23:08.865888,14.98336473,.00026222,70.0010,240.7233,267.3734,92.7125,0,U,63927,999,2718,.3881889E-3,.4543E-4,0
STARLINK-33997,2025-098C,2025-10-31T05:11:09.893472,14.98341103,.00028673,70.0004,241.0940,271.0946,88.9884,0,U,63928,999,2717,.76868982E-3,.9093E-4,0
STARLINK-33989,2025-098D,2025-10-31T06:11:28.093056,14.98344802,.00029871,70.0012,240.8442,265.4075,94.6743,0,U,63929,999,2718,.69243141E-3,.8182E-4,0
STARLINK-33980,2025-098E,2025-10-31T03:29:00.447648,14.98320736,.00028114,70.0006,241.2561,275.3077,84.7761,0,U,63930,999,2716,-.18337062E-3,-.228E-4,0
STARLINK-33994,2025-098F,2025-10-31T06:05:28.498848,14.98329201,.00028475,70.0010,240.8291,268.0119,92.0714,0,U,63931,999,2718,.49109177E-3,.5771E-4,0
