STARLINK-33973          
1 63894U 25095E   25303.70830139  .00048575  00000+0  17609-2 0  9998
2 63894  42.9988 189.8648 0002690 285.4436  74.6118 15.27619620 27910
STARLINK-34119          
1 63895U 25095F   25303.69302647  .00046296  00000+0  16794-2 0  9997
2 63895  43.0014 190.6212 0002154 286.9499  73.1117 15.27616709 27907
STARLINK-34143          
1 63896U 25095G   25303.73272243  .00038734  00000+0  14093-2 0  9999
2 63896  42.9995 190.0513 0003887 288.1709  71.8719 15.27585388 27916
STARLINK-33957          
1 63897U 25095H   25303.76226895  .00047611  00000+0  17267-2 0  9995
2 63897  43.0005 190.2803 0002537 287.0378  73.0196 15.27614540 27901
STARLINK-34120          
1 63898U 25095J   25303.76983232  .00037373  00000+0  13594-2 0  9994
2 63898  42.9972 189.4633 0002641 293.9354  66.1220 15.27611372 27923
STARLINK-34134          
1 63899U 25095K   25304.00967384  .00043482  00000+0  15787-2 0  9997
2 63899  43.0008 188.6999 0001590 279.2778  80.7894 15.27612994 27954
STARLINK-34118          
1 63900U 25095L   25304.01609725  .00035061  00000+0  12766-2 0  9991
2 63900  43.0023 188.7466 0001757 254.5532 105.5126 15.27605863 27954
STARLINK-34125          
1 63901U 25095M   25303.74042165  .00036976  00000+0  13459-2 0  9996
2 63901  43.0058 190.1147 0004129 288.8325  71.2079 15.27588005 27901
STARLINK-33955          
1 63902U 25095N   25303.71086980  .00041843  00000+0  15203-2 0  9995
2 63902  43.0095 189.8896 0003257 275.4740  84.5740 15.27602492 27902
STARLINK-34097          
1 63903U 25095P   25304.33336806 -.00003636  00000+0 -12271-3 0  9993
2 63903  43.0014 186.6269 0001976 265.1524 176.1122 15.27563491  5885
STARLINK-34092          
1 63904U 25095Q   25303.75971491  .00045219  00000+0  16402-2 0  9994
2 63904  43.0036 190.2616 0001919 266.5211  93.5421 15.27628452 27902
STARLINK-34114          
1 63905U 25095R   25303.70202545  .00046794  00000+0  16976-2 0  9992
2 63905  43.0003 190.6854 0002143 288.4683  71.5936 15.27609422 27892
STARLINK-33770          
1 63906U 25095S   25303.71986369  .00048117  00000+0  17451-2 0  9997
2 63906  43.0000 189.9527 0002760 292.2469  67.8090 15.27608210 27903
STARLINK-34106          
1 63907U 25095T   25303.71601052  .00047563  00000+0  17253-2 0  9995
2 63907  42.9993 189.9215 0002463 289.4487  70.6099 15.27607419 27906
STARLINK-34083          
1 63908U 25095U   25303.76355493  .00045425  00000+0  16485-2 0  9997
2 63908  43.0002 190.2859 0002521 285.4817  74.5756 15.27610685 27909
STARLINK-34066          
1 63909U 25095V   25304.01095833  .00047375  00000+0  17183-2 0  9998
2 63909  43.0019 188.7067 0001645 276.6367  83.4298 15.27614508 27941
STARLINK-34071          
1 63910U 25095W   25304.01738481  .00045149  00000+0  16388-2 0  9996
2 63910  43.0022 188.7544 0002050 268.2668  91.7948 15.27606938 27941
STARLINK-34038          
1 63911U 25095X   25304.00325022  .00050653  00000+0  18358-2 0  9994
2 63911  43.0019 188.6446 0001642 264.7593  95.3071 15.27612862 27942
STARLINK-34031          
1 63912U 25095Y   25304.00710495  .00044675  00000+0  16217-2 0  9996
2 63912  43.0018 188.6756 0001744 266.4653  93.5999 15.27609917 27941
STARLINK-34070          
1 63913U 25095Z   25303.73785458  .00038739  00000+0  14083-2 0  9990
2 63913  43.0017 190.0939 0002383 294.3755  65.6848 15.27614992 27902
STARLINK-34068          
1 63914U 25095AA  25303.72757194  .00046346  00000+0  16815-2 0  9994
2 63914  42.9996 190.0110 0002089 279.0045  81.0570 15.27611892 27903
STARLINK-34076          
1 63915U 25095AB  25303.73399728  .00029312  00000+0  10697-2 0  9997
2 63915  43.0021 190.0578 0001483 277.7149  82.3534 15.27602395 27902
STARLINK-33910          
1 63916U 25095AC  25303.71215390  .00031872  00000+0  11621-2 0  9990
2 63916  42.9978 189.8889 0001861 283.2115  76.8529 15.27597270 27905
STARLINK-34075          
1 63917U 25095AD  25303.72371844  .00043262  00000+0  15712-2 0  9990
2 63917  42.9996 189.9814 0002328 291.5029  68.5574 15.27603833 27901
STARLINK-34012          
1 63926U 25098A   25304.13680655  .00007803  00000+0  66094-3 0  9993
2 63926  70.0015 241.2255 0002608 269.3495  90.7365 14.98336837 27186
STARLINK-33956          
1 63927U 25098B   25304.22440817  .00004543  00000+0  38819-3 0  9990
2 63927  70.0010 240.7233 0002622 267.3734  92.7125 14.98336473 27184
STARLINK-33997          
1 63928U 25098C   25304.21608673  .00009093  00000+0  76869-3 0  9998
2 63928  70.0004 241.0940 0002867 271.0946  88.9884 14.98341103 27179
STARLINK-33989          
1 63929U 25098D   25304.25796404  .00008182  00000+0  69243-3 0  9999
2 63929  70.0012 240.8442 0002987 265.4075  94.6743 14.98344802 27184
STARLINK-33980          
1 63930U 25098E   25304.14514407 -.00002280  00000+0 -18337-3 0  9993
2 63930  70.0006 241.2561 0002811 275.3077  84.7761 14.98320736 27162
STARLINK-33994          
1 63931U 25098F   25304.25380207  .00005771  00000+0  49109-3 0  9992
2 63931  70.0010 240.8291 0002847 268.0119  92.0714 14.98329201 27186
